SAOCOM 1B               
1 46265U 20059A   26065.95626301  .00001349  00000+0  17595-3 0  9996
2 46265  97.8885 253.2654 0001504  81.2285 278.9098 14.82173062298346
GEESAT-5 05             
1 65554U 25201E   26068.71826258  .00002790  00000+0  36021-3 0  9998
2 65554  49.9800 140.5064 0011579 255.8827 104.0824 14.83770163 27027
