[{"OBJECT_NAME":"SAOCOM 1B","OBJECT_ID":"2020-059A","EPOCH":"2026-03-06T22:57:01.124064","MEAN_MOTION":14.82173062,"ECCENTRICITY":0.00015046,"INCLINATION":97.8885,"RA_OF_ASC_NODE":253.2654,"ARG_OF_PERICENTER":81.2285,"MEAN_ANOMALY":278.9098,"EPHEMERIS_TYPE":0,"CLASSIFICATION_TYPE":"U","NORAD_CAT_ID":46265,"ELEMENT_SET_NO":999,"REV_AT_EPOCH":29834,"BSTAR":0.00017595012,"MEAN_MOTION_DOT":1.349e-5,"MEAN_MOTION_DDOT":0},{"OBJECT_NAME":"GEESAT-5 05","OBJECT_ID":"2025-201E","EPOCH":"2026-03-09T17:14:17.887776","MEAN_MOTION":14.83770163,"ECCENTRICITY":0.00115794,"INCLINATION":49.98,"RA_OF_ASC_NODE":140.5064,"ARG_OF_PERICENTER":255.8827,"MEAN_ANOMALY":104.0824,"EPHEMERIS_TYPE":0,"CLASSIFICATION_TYPE":"U","NORAD_CAT_ID":65554,"ELEMENT_SET_NO":999,"REV_AT_EPOCH":2702,"BSTAR":0.00036020653,"MEAN_MOTION_DOT":2.79e-5,"MEAN_MOTION_DDOT":0}]
